     2.100          NAVIGATION                              RINEX VERSION / TYPE
fic2rin                                 03/06/2012 00:08:48 PGM / RUN BY / DATE
                                                            END OF HEADER
23 12  3  5 20  0  0.0  .226981006563D-03 -.341060513165D-11  .000000000000D+00
     .310000000000D+02 -.114062500000D+02  .446590030839D-08  .247146992155D+01
    -.528991222382D-06  .759966729674D-02  .110957771540D-04  .515366751671D+04
     .158400000000D+06 -.152736902237D-06  .238299994485D+01  .633299350739D-07
     .961093593360D+00  .169281250000D+03 -.303078871034D+01 -.788675708652D-08
    -.429660754238D-09  .100000000000D+01  .167800000000D+04  .000000000000D+00
     .240000000000D+01  .000000000000D+00 -.200234353542D-07  .310000000000D+02
     .151206000000D+06  .400000000000D+01
25 12  3  5 20  0  0.0  .320426188409D-04  .227373675443D-12  .000000000000D+00
     .700000000000D+02 -.177812500000D+02  .479412826611D-08 -.445994189425D+00
    -.106543302536D-05  .132215209305D-02  .156834721565D-05  .515374740982D+04
     .158400000000D+06  .931322574615D-08 -.182997149021D+01  .894069671631D-07
     .967270958055D+00  .351312500000D+03  .601320596125D+00 -.856928551657D-08
    -.150006248362D-09  .100000000000D+01  .167800000000D+04  .000000000000D+00
     .240000000000D+01  .000000000000D+00  .558793544769D-08  .700000000000D+02
     .151206000000D+06  .400000000000D+01
27 12  3  5 20  0  0.0  .363680999726D-03  .397903932026D-11  .000000000000D+00
     .840000000000D+02  .133156250000D+03  .391944897507D-08 -.299499604961D+01
     .683404505253D-05  .219048700528D-01  .916235148907D-05  .515377307892D+04
     .158400000000D+06  .134110450745D-06 -.290574993782D+01  .320374965668D-06
     .982224981270D+00  .208343750000D+03 -.111543530259D+01 -.753459956060D-08
     .364300888880D-09  .100000000000D+01  .167800000000D+04  .000000000000D+00
     .240000000000D+01  .000000000000D+00 -.419095158577D-08  .840000000000D+02
     .151206000000D+06  .400000000000D+01
28 12  3  5 20  0  0.0  .119488220662D-03  .397903932026D-11  .000000000000D+00
     .680000000000D+02 -.383125000000D+02  .434339520556D-08 -.198482608388D+01
    -.182539224625D-05  .178905002540D-01  .192597508430D-05  .515370737076D+04
     .158400000000D+06  .270083546638D-06 -.177188612452D+01  .260770320892D-07
     .977632211403D+00  .347843750000D+03 -.183529551723D+01 -.810069456930D-08
    -.110718897601D-09  .100000000000D+01  .167800000000D+04  .000000000000D+00
     .240000000000D+01  .000000000000D+00 -.107102096081D-07  .680000000000D+02
     .151206000000D+06  .400000000000D+01
29 12  3  5 20  0  0.0  .290921889246D-03  .352429196937D-11  .000000000000D+00
     .910000000000D+02 -.109250000000D+03  .420696095110D-08  .221857441299D+00
    -.560283660889D-05  .228594092187D-02  .108908861876D-04  .515363105392D+04
     .158400000000D+06 -.745058059692D-08 -.728758833719D+00 -.100582838058D-06
     .963202069392D+00  .173000000000D+03 -.117909779768D+01 -.795175979414D-08
    -.220366321999D-09  .100000000000D+01  .167800000000D+04  .000000000000D+00
     .340000000000D+01  .000000000000D+00 -.931322574615D-08  .910000000000D+02
     .151206000000D+06  .400000000000D+01
30 12  3  5 20  0  0.0 -.707837752998D-04 -.162572177942D-10  .000000000000D+00
     .970000000000D+02 -.281250000000D+00  .480305720947D-08 -.271196664494D+01
     .186264514923D-08  .108957460616D-01  .143051147461D-05  .515362212372D+04
     .158400000000D+06  .145286321640D-06 -.192014244564D+01  .484287738800D-07
     .958564905813D+00  .349812500000D+03  .155419988692D+01 -.834427614402D-08
     .192865176466D-10  .100000000000D+01  .167800000000D+04  .000000000000D+00
     .685000000000D+01  .000000000000D+00 -.419095158577D-08  .970000000000D+02
     .151206000000D+06  .400000000000D+01
31 12  3  5 20  0  0.0  .216020736843D-03  .443378667114D-11  .000000000000D+00
     .820000000000D+02  .973437500000D+02  .404516849750D-08  .878540865748D+00
     .490620732307D-05  .799261254724D-02  .857934355736D-05  .515360269165D+04
     .158400000000D+06  .335276126862D-07 -.285023603541D+01 -.169500708580D-06
     .981026506115D+00  .223093750000D+03 -.891188712718D+00 -.794461663946D-08
     .236081262304D-09  .100000000000D+01  .167800000000D+04  .000000000000D+00
     .240000000000D+01  .000000000000D+00 -.130385160446D-07  .820000000000D+02
     .151206000000D+06  .400000000000D+01
32 12  3  5 20  0  0.0 -.416403636336D-03 -.500222085975D-11  .000000000000D+00
     .990000000000D+02 -.129375000000D+02  .524236122253D-08  .149929366897D+01
    -.741332769394D-06  .118508440210D-01  .455044209957D-05  .515372249222D+04
     .158400000000D+06  .186264514923D-06  .140982222098D+01  .856816768646D-07
     .951930983404D+00  .287843750000D+03 -.607555433020D+00 -.840820737844D-08
    -.244653047924D-09  .100000000000D+01  .167800000000D+04  .000000000000D+00
     .340000000000D+01  .000000000000D+00 -.279396772385D-08  .990000000000D+02
     .151206000000D+06  .400000000000D+01
29 12  3  5 19 59 44.0  .290918629616D-03  .352429196937D-11  .000000000000D+00
     .000000000000D+00 -.109250000000D+03  .420696095110D-08  .219525526474D+00
    -.560283660889D-05  .228593696374D-02  .108908861876D-04  .515363105774D+04
     .158384000000D+06 -.745058059692D-08 -.728758706445D+00 -.100582838058D-06
     .963202072318D+00  .173000000000D+03 -.117909973897D+01 -.795175979414D-08
    -.220366321999D-09  .100000000000D+01  .167800000000D+04  .000000000000D+00
     .240000000000D+01  .000000000000D+00 -.931322574615D-08  .000000000000D+00
     .151956000000D+06  .400000000000D+01
32 12  3  5 19 59 28.0 -.416401773691D-03 -.500222085975D-11  .000000000000D+00
     .140000000000D+02 -.129375000000D+02  .524236122253D-08  .149462615569D+01
    -.741332769394D-06  .118508404121D-01  .455044209957D-05  .515372248650D+04
     .158368000000D+06  .186264514923D-06  .140982248870D+01  .856816768646D-07
     .951931003884D+00  .287843750000D+03 -.607555225285D+00 -.840820737844D-08
    -.244653047924D-09  .100000000000D+01  .167800000000D+04  .000000000000D+00
     .240000000000D+01  .000000000000D+00 -.279396772385D-08  .140000000000D+02
     .153186000000D+06  .400000000000D+01
13 12  3  5 19 59 44.0  .221196096390D-03 -.216004991671D-11  .000000000000D+00
     .170000000000D+02  .712500000000D+01  .389694803781D-08 -.301153039300D+01
     .432133674622D-06  .485026324168D-02  .114291906357D-04  .515370808029D+04
     .158384000000D+06  .745058059692D-07  .245969704441D+01  .949949026108D-07
     .986692207897D+00  .174437500000D+03  .194303855455D+01 -.756210070613D-08
    -.377158567311D-09  .100000000000D+01  .167800000000D+04  .000000000000D+00
     .240000000000D+01  .000000000000D+00 -.111758708954D-07  .170000000000D+02
     .156516000000D+06  .400000000000D+01
 7 12  3  5 19 59 44.0  .620940700173D-04  .295585778076D-11  .000000000000D+00
     .100000000000D+01  .102687500000D+03  .419160316853D-08  .894541643421D+00
     .542588531971D-05  .512314145453D-02  .788457691669D-05  .515362200165D+04
     .158384000000D+06  .558793544769D-07 -.285277598450D+01  .875443220139D-07
     .975939957508D+00  .232656250000D+03 -.301243071375D+01 -.802854870699D-08
     .188579283656D-09  .100000000000D+01  .167800000000D+04  .000000000000D+00
     .240000000000D+01  .000000000000D+00 -.107102096081D-07  .100000000000D+01
     .157206000000D+06  .400000000000D+01
32 12  3  5 21 59 28.0 -.416438095272D-03 -.500222085975D-11  .000000000000D+00
     .150000000000D+02 -.127812500000D+02  .520307387177D-08  .254482050238D+01
    -.752508640289D-06  .118511626497D-01  .417418777943D-05  .515372145844D+04
     .165568000000D+06  .102445483208D-06  .140976163862D+01  .236555933952D-06
     .951929385897D+00  .291906250000D+03 -.607592972960D+00 -.838427781025D-08
    -.158935191717D-09  .100000000000D+01  .167800000000D+04  .000000000000D+00
     .240000000000D+01  .000000000000D+00 -.279396772385D-08  .150000000000D+02
     .158406000000D+06  .400000000000D+01
 7 12  3  5 21 59 44.0  .621150247753D-04  .295585778076D-11  .000000000000D+00
     .600000000000D+01  .100343750000D+03  .419374611493D-08  .194446732959D+01
     .533461570740D-05  .512317568064D-02  .865571200848D-05  .515362472916D+04
     .165584000000D+06 -.465661287308D-07 -.285283402723D+01  .163912773132D-06
     .975941437981D+00  .222281250000D+03 -.301214663993D+01 -.800033324599D-08
     .251439044874D-09  .100000000000D+01  .167800000000D+04  .000000000000D+00
     .240000000000D+01  .000000000000D+00 -.107102096081D-07  .600000000000D+01
     .158406000000D+06  .400000000000D+01
13 12  3  5 21 59 44.0  .221180263907D-03 -.216004991671D-11  .000000000000D+00
     .180000000000D+02 -.228125000000D+01  .384980321690D-08 -.196121590856D+01
     .186264514923D-07  .484912423417D-02  .113379210234D-04  .515371065331D+04
     .165584000000D+06 -.558793544769D-08  .245964260338D+01  .126659870148D-06
     .986689413723D+00  .178031250000D+03  .194287840306D+01 -.759424490221D-08
    -.370729728096D-09  .100000000000D+01  .167800000000D+04  .000000000000D+00
     .240000000000D+01  .000000000000D+00 -.111758708954D-07  .180000000000D+02
     .158406000000D+06  .400000000000D+01
29 12  3  5 21 59 44.0  .290944240987D-03  .352429196937D-11  .000000000000D+00
     .200000000000D+01 -.112343750000D+03  .427874965567D-08  .127002839819D+01
    -.587664544582D-05  .228601938579D-02  .111740082502D-04  .515363031006D+04
     .165584000000D+06  .465661287308D-07 -.728815978225D+00 -.447034835815D-07
     .963200239282D+00  .164718750000D+03 -.117939818742D+01 -.798140388608D-08
    -.248938940735D-09  .100000000000D+01  .167800000000D+04  .000000000000D+00
     .240000000000D+01  .000000000000D+00 -.931322574615D-08  .200000000000D+01
     .158406000000D+06  .400000000000D+01
